GLOBALSTAR M023         
1 25621U 99004A   25242.13138348 -.00000035  00000+0  38311-3 0  9991
2 25621  52.0093 188.2786 0010029 291.7674  80.3042 12.62503066225079
GLOBALSTAR M040         
1 25622U 99004B   25242.13574704 -.00000061  00000+0  24081-3 0  9990
2 25622  51.9904 192.5299 0000522 175.8772 197.3659 12.62015937224598
GLOBALSTAR M036         
1 25623U 99004C   25242.19548780 -.00000052  00000+0  45185-3 0  9990
2 25623  51.9978  45.2480 0010786 188.6266 342.5639 11.86607423187760
GLOBALSTAR M038         
1 25624U 99004D   25242.20661115 -.00000059  00000+0  29909-3 0  9994
2 25624  51.9950 218.4037 0001588 207.8055 165.9692 12.32531344211509
GLOBALSTAR M022         
1 25649U 99012A   25241.99111337 -.00000091  00000+0 -52714-4 0  9999
2 25649  52.0037  90.2678 0002430 338.4123 175.5089 12.02502509185252
GLOBALSTAR M041         
1 25650U 99012B   25241.97218346 -.00000064  00000+0  27668-3 0  9995
2 25650  52.0050 334.0241 0001963 105.9755 254.1298 11.96683413187111
GLOBALSTAR M046         
1 25651U 99012C   25241.72369245 -.00000034  00000+0  60844-3 0  9994
2 25651  52.0067  38.4430 0002665  55.7852 317.0161 12.09410584192560
GLOBALSTAR M037         
1 25652U 99012D   25242.28538797 -.00000078  00000+0  14235-3 0  9998
2 25652  52.0025 318.4051 0001769   5.7768  68.2715 12.62449830220635
